CCSDS_OMM_VERS,COMMENT,CREATION_DATE,ORIGINATOR,OBJECT_NAME,OBJECT_ID,CENTER_NAME,REF_FRAME,TIME_SYSTEM,MEAN_ELEMENT_THEORY,EPOCH,MEAN_MOTION,ECCENTRICITY,INCLINATION,RA_OF_ASC_NODE,ARG_OF_PERICENTER,MEAN_ANOMALY,EPHEMERIS_TYPE,CLASSIFICATION_TYPE,NORAD_CAT_ID,ELEMENT_SET_NO,REV_AT_EPOCH,BSTAR,MEAN_MOTION_DOT,MEAN_MOTION_DDOT,SEMIMAJOR_AXIS,PERIOD,APOAPSIS,PERIAPSIS,OBJECT_TYPE,RCS_SIZE,COUNTRY_CODE,LAUNCH_DATE,SITE,DECAY_DATE,FILE,GP_ID,TLE_LINE0,TLE_LINE1,TLE_LINE2
"2.0","GENERATED VIA SPACE-TRACK.ORG API","2020-06-07T20:32:56","18 SPCS","COSMOS 1867","1987-060A","EARTH","TEME","UTC","SGP4","2020-06-07T04:28:09.457248","14.31111928","0.00136430","65.0119","69.4664","269.4808","90.4713","0","U","18187","999","71917","0.00000701250000","-0.00000082","0.0000000000000","7166.153","100.621","797.795","778.241","PAYLOAD","LARGE","CIS","1987-07-10","TTMTR","","2760918","155211855","0 COSMOS 1867","1 18187U 87060A   20159.18622057 -.00000082 +00000-0 +70125-5 0  9995","2 18187 065.0119 069.4664 0013643 269.4808 090.4713 14.31111928719178"
"2.0","GENERATED VIA SPACE-TRACK.ORG API","2020-06-07T02:38:14","18 SPCS","COSMOS 1867","1987-060A","EARTH","TEME","UTC","SGP4","2020-06-06T18:24:23.321376","14.31111934","0.00136460","65.0118","70.6398","269.4383","90.5138","0","U","18187","999","71934","0.00000320660000","-0.00000092","0.0000000000000","7166.153","100.621","797.797","778.239","PAYLOAD","LARGE","CIS","1987-07-10","TTMTR","","2760705","155186629","0 COSMOS 1867","1 18187U 87060A   20158.76693659 -.00000092 +00000-0 +32066-5 0  9997","2 18187 065.0118 070.6398 0013646 269.4383 090.5138 14.31111934719344"
"2.0","GENERATED VIA SPACE-TRACK.ORG API","2020-06-06T22:16:09","18 SPCS","IRIDIUM 153","2017-083J","EARTH","TEME","UTC","SGP4","2020-06-06T11:15:51.833952","14.34216524","0.00031670","86.3960","130.5789","77.2831","282.8719","0","U","43078","999","12970","0.00001587500000","0.00000064","0.0000000000000","7155.808","100.403","779.939","775.406","PAYLOAD","LARGE","US","2017-12-23","AFWTR","","2760665","155181979","0 IRIDIUM 153","1 43078U 17083J   20158.46934993  .00000064  00000-0  15875-4 0  9994","2 43078  86.3960 130.5789 0003167  77.2831 282.8719 14.34216524129702"
"2.0","GENERATED VIA SPACE-TRACK.ORG API","2020-06-07T02:38:14","18 SPCS","IRIDIUM 153","2017-083J","EARTH","TEME","UTC","SGP4","2020-06-06T11:15:51.833952","14.34216524","0.00031670","86.3960","130.5789","77.2831","282.8719","0","U","43078","999","12970","0.00001587500000","0.00000064","0.0000000000000","7155.808","100.403","779.939","775.406","PAYLOAD","LARGE","US","2017-12-23","AFWTR","","2760705","155199605","0 IRIDIUM 153","1 43078U 17083J   20158.46934993 +.00000064 +00000-0 +15875-4 0  9994","2 43078 086.3960 130.5789 0003167 077.2831 282.8719 14.34216524129702"
"2.0","GENERATED VIA SPACE-TRACK.ORG API","2020-06-06T16:43:21","18 SPCS","IRIDIUM 153","2017-083J","EARTH","TEME","UTC","SGP4","2020-06-06T07:54:55.827648","14.34216489","0.00031710","86.3960","130.6372","77.4738","282.6813","0","U","43078","999","12968","0.00001529600000","0.00000063","0.0000000000000","7155.808","100.403","779.942","775.404","PAYLOAD","LARGE","US","2017-12-23","AFWTR","","2760595","155176885","0 IRIDIUM 153","1 43078U 17083J   20158.32981282 +.00000063 +00000-0 +15296-4 0  9998","2 43078 086.3960 130.6372 0003171 077.4738 282.6813 14.34216489129684"
"2.0","GENERATED VIA SPACE-TRACK.ORG API","2020-06-06T16:43:21","18 SPCS","COSMOS 1867","1987-060A","EARTH","TEME","UTC","SGP4","2020-06-06T06:39:59.502528","14.31111905","0.00136470","65.0118","72.0087","269.4163","90.5357","0","U","18187","999","71904","-0.00000098166000","-0.00000103","0.0000000000000","7166.153","100.621","797.798","778.238","PAYLOAD","LARGE","CIS","1987-07-10","TTMTR","","2760595","155163870","0 COSMOS 1867","1 18187U 87060A   20158.27777202 -.00000103 +00000-0 -98166-6 0  9998","2 18187 065.0118 072.0087 0013647 269.4163 090.5357 14.31111905719040"
"2.0","GENERATED VIA SPACE-TRACK.ORG API","2020-06-06T01:51:42","18 SPCS","COSMOS 1867","1987-060A","EARTH","TEME","UTC","SGP4","2020-06-05T17:14:57.993792","14.31111911","0.00136470","65.0117","73.5733","269.3476","90.6045","0","U","18187","999","71896","-0.00000451890000","-0.00000112","0.0000000000000","7166.153","100.621","797.798","778.238","PAYLOAD","LARGE","CIS","1987-07-10","TTMTR","","2760205","155136850","0 COSMOS 1867","1 18187U 87060A   20157.71872678 -.00000112 +00000-0 -45189-5 0  9995","2 18187 065.0117 073.5733 0013647 269.3476 090.6045 14.31111911718961"
"2.0","GENERATED VIA SPACE-TRACK.ORG API","2020-06-06T01:51:42","18 SPCS","IRIDIUM 153","2017-083J","EARTH","TEME","UTC","SGP4","2020-06-05T15:10:15.783168","14.34216405","0.00031900","86.3960","130.9288","78.3052","281.8502","0","U","43078","999","12958","0.00001493900000","0.00000062","0.0000000000000","7155.808","100.403","779.956","775.390","PAYLOAD","LARGE","US","2017-12-23","AFWTR","","2760205","155147429","0 IRIDIUM 153","1 43078U 17083J   20157.63212712 +.00000062 +00000-0 +14939-4 0  9998","2 43078 086.3960 130.9288 0003190 078.3052 281.8502 14.34216405129586"
"2.0","GENERATED VIA SPACE-TRACK.ORG API","2020-06-05T18:39:15","18 SPCS","COSMOS 1867","1987-060A","EARTH","TEME","UTC","SGP4","2020-06-05T12:13:04.928448","14.31111909","0.00136480","65.0117","74.1600","269.3521","90.5999","0","U","18187","999","71893","-0.00000508780000","-0.00000114","0.0000000000000","7166.153","100.621","797.798","778.238","PAYLOAD","LARGE","CIS","1987-07-10","TTMTR","","2760019","155111812","0 COSMOS 1867","1 18187U 87060A   20157.50908482 -.00000114 +00000-0 -50878-5 0  9998","2 18187 065.0117 074.1600 0013648 269.3521 090.5999 14.31111909718934"
"2.0","GENERATED VIA SPACE-TRACK.ORG API","2020-06-05T18:39:15","18 SPCS","IRIDIUM 153","2017-083J","EARTH","TEME","UTC","SGP4","2020-06-05T10:08:51.768960","14.34216390","0.00031920","86.3959","131.0163","78.5213","281.6341","0","U","43078","999","12955","0.00001500600000","0.00000062","0.0000000000000","7155.808","100.403","779.957","775.389","PAYLOAD","LARGE","US","2017-12-23","AFWTR","","2760019","155124853","0 IRIDIUM 153","1 43078U 17083J   20157.42282140 +.00000062 +00000-0 +15006-4 0  9993","2 43078 086.3959 131.0163 0003192 078.5213 281.6341 14.34216390129550"
"2.0","GENERATED VIA SPACE-TRACK.ORG API","2020-06-05T14:16:09","18 SPCS","IRIDIUM 153","2017-083J","EARTH","TEME","UTC","SGP4","2020-06-05T08:28:23.765376","14.34216383","0.00031940","86.3959","131.0455","78.6283","281.5271","0","U","43078","999","12954","0.00001546200000","0.00000063","0.0000000000000","7155.808","100.403","779.959","775.388","PAYLOAD","LARGE","US","2017-12-23","AFWTR","","2759819","155101918","0 IRIDIUM 153","1 43078U 17083J   20157.35305284  .00000063  00000-0  15462-4 0  9997","2 43078  86.3959 131.0455 0003194  78.6283 281.5271 14.34216383129546"
"2.0","GENERATED VIA SPACE-TRACK.ORG API","2020-06-05T15:16:09","18 SPCS","COSMOS 1867","1987-060A","EARTH","TEME","UTC","SGP4","2020-06-05T07:11:11.863104","14.31111910","0.00136480","65.0117","74.7467","269.3207","90.6313","0","U","18187","999","71913","-0.00000580990000","-0.00000116","0.0000000000000","7166.153","100.621","797.798","778.238","PAYLOAD","LARGE","CIS","1987-07-10","TTMTR","","2759967","155105496","0 COSMOS 1867","1 18187U 87060A   20157.29944286 -.00000116  00000-0 -58099-5 0  9991","2 18187  65.0117  74.7467 0013648 269.3207  90.6313 14.31111910719138"
"2.0","GENERATED VIA SPACE-TRACK.ORG API","2020-06-05T02:07:19","18 SPCS","COSMOS 1867","1987-060A","EARTH","TEME","UTC","SGP4","2020-06-04T21:07:25.733280","14.31111921","0.00136460","65.0116","75.9201","269.2676","90.6845","0","U","18187","999","71884","-0.00000769520000","-0.00000121","0.0000000000000","7166.153","100.621","797.797","778.239","PAYLOAD","LARGE","CIS","1987-07-10","TTMTR","","2759559","155080090","0 COSMOS 1867","1 18187U 87060A   20156.88015895 -.00000121 +00000-0 -76952-5 0  9994","2 18187 065.0116 075.9201 0013646 269.2676 090.6845 14.31111921718842"
"2.0","GENERATED VIA SPACE-TRACK.ORG API","2020-06-05T02:07:19","18 SPCS","IRIDIUM 153","2017-083J","EARTH","TEME","UTC","SGP4","2020-06-04T20:45:07.733376","14.34216314","0.00032040","86.3959","131.2496","79.1329","281.0227","0","U","43078","999","12947","0.00001497100000","0.00000062","0.0000000000000","7155.808","100.403","779.966","775.381","PAYLOAD","LARGE","US","2017-12-23","AFWTR","","2759559","155092935","0 IRIDIUM 153","1 43078U 17083J   20156.86467284 +.00000062 +00000-0 +14971-4 0  9994","2 43078 086.3959 131.2496 0003204 079.1329 281.0227 14.34216314129474"
"2.0","GENERATED VIA SPACE-TRACK.ORG API","2020-06-04T17:49:43","18 SPCS","COSMOS 1867","1987-060A","EARTH","TEME","UTC","SGP4","2020-06-04T12:44:17.298528","14.31111906","0.00136430","65.0116","76.8980","269.2623","90.6898","0","U","18187","999","71879","-0.00000727850000","-0.00000119","0.0000000000000","7166.153","100.621","797.795","778.241","PAYLOAD","LARGE","CIS","1987-07-10","TTMTR","","2759240","155052986","0 COSMOS 1867","1 18187U 87060A   20156.53075577 -.00000119 +00000-0 -72785-5 0  9996","2 18187 065.0116 076.8980 0013643 269.2623 090.6898 14.31111906718790"
"2.0","GENERATED VIA SPACE-TRACK.ORG API","2020-06-04T17:49:43","18 SPCS","IRIDIUM 153","2017-083J","EARTH","TEME","UTC","SGP4","2020-06-04T10:42:19.703232","14.34216268","0.00032110","86.3959","131.4245","79.5792","280.5766","0","U","43078","999","12941","0.00001554000000","0.00000063","0.0000000000000","7155.809","100.403","779.971","775.376","PAYLOAD","LARGE","US","2017-12-23","AFWTR","","2759240","155066488","0 IRIDIUM 153","1 43078U 17083J   20156.44606138 +.00000063 +00000-0 +15540-4 0  9995","2 43078 086.3959 131.4245 0003211 079.5792 280.5766 14.34216268129418"
